TIANQI-15               
1 49027U 21065B   26068.81163741  .00006722  00000+0  41179-3 0  9990
2 49027  34.9979 108.2420 0007067 250.7766 109.2180 15.09508085254244
STARLINK-3736           
1 52113U 22029AB  26068.40924782  .00000376  00000+0  41697-4 0  9991
2 52113  53.2176  80.3803 0001372  91.0355 269.0795 15.08839368220740
